TIANMU-1 20             
1 58661U 23208B   26161.27382684  .00007730  00000+0  24744-3 0  9997
2 58661  97.4434 278.1675 0006624   0.8908 359.2345 15.32661115136369
TIANMU-1 21             
1 58662U 23208C   26161.27253553  .00008924  00000+0  26544-3 0  9996
2 58662  97.4492 280.8171 0006499 352.4955   7.6189 15.34954473136503
TIANMU-1 22             
1 58663U 23208D   26161.27545976  .00007233  00000+0  24436-3 0  9990
2 58663  97.4488 277.4828 0003877  28.2308 331.9142 15.30961507136275
TIANMU-1 15             
1 58700U 24004A   26161.28347523  .00005181  00000+0  19852-3 0  9992
2 58700  97.4673 347.4734 0007400  25.8492 334.3115 15.26952555134723
TIANMU-1 16             
1 58701U 24004B   26161.27146800  .00005303  00000+0  20481-3 0  9993
2 58701  97.4619 346.7060 0006521  30.8471 329.3149 15.26677703134724
TIANMU-1 17             
1 58702U 24004C   26161.32246182  .00005330  00000+0  20585-3 0  9999
2 58702  97.4646 347.2394 0006177  36.4565 323.7093 15.26677920134721
TIANMU-1 18             
1 58703U 24004D   26161.30000909  .00004773  00000+0  18325-3 0  9992
2 58703  97.4665 347.4681 0004679  36.2841 323.8714 15.26935960134726
INSAT-3DS               
1 58990U 24033A   26161.07105508 -.00000139  00000+0  00000+0 0  9997
2 58990   0.0051  58.6810 0001171  15.7126 291.7128  1.00272651 46991
METEOR-M2 4             
1 59051U 24039A   26161.28991164 -.00000001  00000+0  19238-4 0  9992
2 59051  98.7008 120.6747 0006875 180.6159 179.5012 14.22428862118281
GOES 19                 
1 60133U 24119A   26161.25370623 -.00000231  00000+0  00000+0 0  9999
2 60133   0.0351 162.1692 0000446 356.6218 115.9772  1.00271418  6895
MTG-S1                  
1 64723U 25143A   26161.26791963 -.00000015  00000+0  00000+0 0  9991
2 64723   0.6096 337.3431 0000991  23.0955 351.1670  1.00271600  3353
METOP-SGA1              
1 65159U 25172A   26161.17038815  .00000029  00000+0  33248-4 0  9996
2 65159  98.6645 221.0260 0000940  89.0756 271.0529 14.21508654 42791
FENGYUN 3H              
1 65815U 25219A   26161.06489819  .00000046  00000+0  42015-4 0  9990
2 65815  98.6767 101.9725 0001626  82.1732 277.9629 14.19919290 36379
