OBJECT_NAME,OBJECT_ID,EPOCH,MEAN_MOTION,ECCENTRICITY,INCLINATION,RA_OF_ASC_NODE,ARG_OF_PERICENTER,MEAN_ANOMALY,EPHEMERIS_TYPE,CLASSIFICATION_TYPE,NORAD_CAT_ID,ELEMENT_SET_NO,REV_AT_EPOCH,BSTAR,MEAN_MOTION_DOT,MEAN_MOTION_DDOT
TIANMU-1 20,2023-208B,2026-06-10T06:34:18.638976,15.32661115,.00066242,97.4434,278.1675,0.8908,359.2345,0,U,58661,999,13636,.24744338E-3,.773E-4,0
TIANMU-1 21,2023-208C,2026-06-10T06:32:27.069792,15.34954473,.00064992,97.4492,280.8171,352.4955,7.6189,0,U,58662,999,13650,.26543784E-3,.8924E-4,0
TIANMU-1 22,2023-208D,2026-06-10T06:36:39.723264,15.30961507,.00038774,97.4488,277.4828,28.2308,331.9142,0,U,58663,999,13627,.24436004E-3,.7233E-4,0
TIANMU-1 15,2024-004A,2026-06-10T06:48:12.259872,15.26952555,.00074004,97.4673,347.4734,25.8492,334.3115,0,U,58700,999,13472,.19851834E-3,.5181E-4,0
TIANMU-1 16,2024-004B,2026-06-10T06:30:54.835200,15.26677703,.00065211,97.4619,346.7060,30.8471,329.3149,0,U,58701,999,13472,.20480785E-3,.5303E-4,0
TIANMU-1 17,2024-004C,2026-06-10T07:44:20.701248,15.26677920,.00061774,97.4646,347.2394,36.4565,323.7093,0,U,58702,999,13472,.20584653E-3,.533E-4,0
TIANMU-1 18,2024-004D,2026-06-10T07:12:00.785376,15.26935960,.00046794,97.4665,347.4681,36.2841,323.8714,0,U,58703,999,13472,.18325252E-3,.4773E-4,0
INSAT-3DS,2024-033A,2026-06-10T01:42:19.158912,1.00272651,.00011715,0.0051,58.6810,15.7126,291.7128,0,U,58990,999,4699,0,-.139E-5,0
METEOR-M2 4,2024-039A,2026-06-10T06:57:28.365696,14.22428862,.00068758,98.7008,120.6747,180.6159,179.5012,0,U,59051,999,11828,.19237984E-4,-.1E-7,0
GOES 19,2024-119A,2026-06-10T06:05:20.218272,1.00271418,.00004468,0.0351,162.1692,356.6218,115.9772,0,U,60133,999,689,0,-.231E-5,0
MTG-S1,2025-143A,2026-06-10T06:25:48.256032,1.00271600,.00009911,0.6096,337.3431,23.0955,351.1670,0,U,64723,999,335,0,-.15E-6,0
METOP-SGA1,2025-172A,2026-06-10T04:05:21.536160,14.21508654,.00009403,98.6645,221.0260,89.0756,271.0529,0,U,65159,999,4279,.33247978E-4,.29E-6,0
FENGYUN 3H,2025-219A,2026-06-10T01:33:27.203616,14.19919290,.0001626,98.6767,101.9725,82.1732,277.9629,0,U,65815,999,3637,.42015165E-4,.46E-6,0
